#dP2023  3 26  0  0  0.00000000      96 __u+U ITR00 EXT  IAC
## 2255      0.00000000   900.00000000 60029 0.0000000000000
+  120   C06C07C08C09C10C11C12C13C14C16C19C20C21C22C23C24C25
+        C26C27C28C29C30C32C33C34C35C36C37C38C39C40C41C42C43
+        C44C45C46E01E02E03E04E05E07E08E09E10E11E12E13E14E15
+        E18E19E21E24E25E26E27E30E31E33E34E36G01G02G03G04G05
+        G06G07G08G09G10G11G12G13G14G15G16G17G18G19G20G21G22
+        G23G24G25G26G27G28G29G30G31G32J02J03J04R01R02R03R04
+        R05R07R08R09R11R12R13R14R15R16R17R18R19R20R21R22R24
+        R25  0  0  0  0  0  0  0  0  0  0  0  0  0  0  0  0
++        10  8 10  8  7 10 10 10  8 10  7  7 10  8  8  8  8
++         7  7  7  7 10  9  9 10  9 10  9 10 12  9  8  9  8
++         9  8  9  8  9  7  8  8  7  7  8  9  8  9  8  7  8
++         8  8  7  8  8  8  0  8  8  8  7  7  8  7  8  8  8
++         7  8  7  8  8 10  8  7  8  6  8  7  7  7  8  8  7
++         7  8  8  8  7  9  7  7  7  8 10  9  7  7  8  7  8
++         9  9  9  8  7  7  8  7  9  9  7  8  8  9  8  8  8
++         9  0  0  0  0  0  0  0  0  0  0  0  0  0  0  0  0
%c M  cc GPS ccc cccc cccc cccc cccc ccccc ccccc ccccc ccccc
%c cc cc ccc ccc cccc cccc cccc cccc ccccc ccccc ccccc ccccc
%f  0.0000000  0.000000000  0.00000000000  0.000000000000000
%f  0.0000000  0.000000000  0.00000000000  0.000000000000000
%i    0    0    0    0      0      0      0      0         0
%i    0    0    0    0      0      0      0      0         0
/* IAC                                ULTRA-RAPID PREDICTION
/* S/V CLOCKS ARE ALIGNED TO GNSS TIME                      
/* G:C1WC2W R:C1PC2P E:C1XC5X C:C2IC6I J:C1CC2S             
/* PCV:IGS20_2247 OL/AL:FES2004  NONE     YN ORB:CoN CLK:CoN
*  2023 03 26 22 30  0.00000000
PC06  -9381.504916  23049.779600  34044.296233   -196.951535
PC07 -17023.598484  37654.195187  -8781.938893    -78.805517
PC08   -340.972111  35631.129089 -22392.466486    514.037753
PC09   1364.484341  25446.279919  34072.759775    837.204249
PC10 -10883.187705  38105.171586 -14826.006687    -18.409200
PC11  12025.291561  14234.165491 -20704.385758    727.994243
PC12  -9057.765242  14333.358828 -22129.030778    531.561122
PC13   4280.037122  38322.738331 -16592.048639    238.666952
PC14   3690.347806  19811.124362  19352.837422     42.587134
PC16 -12109.609341  21801.801225  34183.990802    127.469582
PC19 -11046.603836 -11762.963257 -22733.175216   -897.519498
PC20   2905.040940 -23827.536241 -14185.445081    659.035599
PC21 -16236.102196  22421.563495  -3616.382785   -908.866168
PC22 -19354.484818   7685.955910 -18585.041169   -566.330237
PC23  18952.137863   4387.568988 -20008.222092   -894.438999
PC24   4906.033563  25137.069806  11036.515717   -246.476116
PC25  17964.349480  20031.370073  -7373.665134     94.803874
PC26  -8586.934813  15698.974559  21388.767257    -97.499058
PC27  17755.860332 -11967.997970  17883.346067    116.427469
PC28  27614.007774  -1803.384104   3616.839501     85.467347
PC29 -21736.656909  -9808.851124  14480.340037     98.814120
PC30  -2111.034499 -15895.624230  22828.545981      0.698881
PC32  16111.595632 -22469.240800   3743.051643   -591.242465
PC33  11073.078110  11844.130180  22724.983316   -871.329011
PC34   3648.353507  15849.479415 -22691.898902    135.277562
PC35 -27672.374074   2168.592434  -2663.565181    657.353348
PC36 -17230.433041 -20906.246993   6724.506294   -539.586276
PC37   9882.754470 -14379.653684 -21776.059070   -797.106014
PC38  -7001.800773  31007.305965 -27592.315114     67.622047
PC39 -18334.730941  20115.110404  32188.457432     -2.325132
PC40 -23893.451164  34056.867801  -7593.330672    -18.638500
PC41  19253.345965  -7012.919998  18998.041225   -772.578265
PC42  -3869.930162  24329.072401  13184.912621   -767.273841
PC43  21112.225313  10365.170190 -15051.053903     13.683100
PC44 -17419.136530  12678.683905 -17730.875656     56.650010
PC45 -18754.909378  -4013.539369  20272.563957    -77.214147
PC46  -6244.049176 -25447.194178  -9664.197772    -42.639650
PE01   2365.433461 -29471.165622  -1519.701747    -11.672912
PE02  -2035.791745  29501.547338   1038.035700     28.682717
PE03  -6238.018125  19946.310769  20969.243874   -663.083794
PE04 -14089.560007 -11226.561748 -23474.615772    -87.048993
PE05 -23379.634215  17121.638165   6047.106846    -82.683523
PE07  26567.824955  -4170.792809  12367.250890    -32.882416
PE08  13833.664237  11239.866149  23635.694116    -57.472488
PE09 -26487.182090   4166.258119 -12546.634045   -882.990763
PE10 -25802.941638 -14315.662269  -2312.479069   -521.964711
PE11 -25981.763077  -6834.648222 -12409.912306   1389.990531
PE12 -21534.410977 -18986.555458   7150.264058   -474.032515
PE13  26153.192937   7495.782091  11684.549698    -18.045925
PE14 -28051.004036   4449.418494   7301.276224    179.591389
PE15  21391.523948  19048.678092  -7488.933329    -10.205975
PE18  21728.297616   6082.619621 -15896.233583   -237.459083
PE19   9135.606161 -20164.969572 -19638.367521  -2913.557708
PE21  12702.419566 -20426.562019 -17261.814759   -519.800443
PE24 -16694.383001  -1996.269051  24341.983482  -1187.043043
PE25 -12841.119888  20135.397637  17482.033564   -602.096968
PE26  14952.280297  -9019.892761  23906.150683     57.078630
PE27  16716.348718    960.726859 -24413.667561     -9.899404
PE30  10499.989477  22084.199310 -16684.242707    -42.858219
PE31 -10843.903919 -21582.998219  17114.194062   -519.626432
PE33  -4011.413524 -19264.591178  22110.364954   -448.026765
PE34   4225.621716  19315.772756 -22032.336677    -36.976770
PE36 -15528.228960   8315.754163 -23782.428348    -32.117430
PG01  22280.948208  14617.636306   2065.610650    198.937207
PG02 -23726.273524 -10504.153111  -4403.443952   -611.337914
PG03  12797.156873  11020.427062  20406.548203   -342.445575
PG04  21135.366540   3104.852804  15865.338266      2.098206
PG05  -5936.551497 -23828.285980 -10134.188730   -121.008803
PG06   7111.623477 -12853.805339  22188.210683    583.919389
PG07  22332.690838   3764.288091 -13816.758183    214.849405
PG08  11262.680335  11182.318731 -21412.938269   -114.806103
PG09  24763.745161  -6550.165959   7036.334345   -192.729559
PG10 -11139.813308  19396.678238 -13901.736491    -30.210629
PG11  -6650.592862 -19748.182408  16498.771575   -142.546146
PG12 -11248.206754 -14012.070817  19308.618127   -356.361474
PG13  -2754.410389 -14910.978492 -21971.821895    496.523860
PG14  13364.006974 -16714.362158 -15637.195254      6.984855
PG15 -13044.958158 -10333.133540 -21193.016420     25.084581
PG16   1255.248573  25062.846075  -8255.461322   -513.011857
PG17  21807.491230 -13680.667710   7179.442034    707.550132
PG18 -20198.117390   -225.734742 -17321.155114   -196.921151
PG19  14983.368949 -15716.995891  14867.717544    295.350727
PG20  -1480.091170 -26621.708890    741.928182    442.600652
PG21  20395.201282  16547.368048  -5701.529714    154.321841
PG22 -11180.957401  16992.589197  17433.829938    452.743808
PG23 -14612.954090   7890.362656 -20688.240518     12.900347
PG24 -21902.955546 -15219.100531  -2858.310957   -127.561564
PG25 -15074.482832  -2363.654789  21433.653312    430.829756
PG26  -4792.759169  25297.935475   5624.164827    241.968553
PG27   -784.329692  16350.339893 -21073.171654     72.375019
PG28  -8834.853834  12349.185553  21762.913293     52.731022
PG29 -24463.488704   1721.188146  10249.057620   -592.739432
PG30  14940.987171  -7815.621048 -20470.670227   -525.232505
PG31  -3423.586483  15802.746195  20826.455834   -212.546917
PG32 -19142.560761  16001.462471   8986.904437   -434.635527
PJ02 -28810.492864  25888.487309  21618.865072     -1.314504
PJ03 -30094.505557  15651.869744 -20433.245572      1.406090
PJ04 -23559.305355  33624.725363  -4567.504453     94.147447
PR01   2484.430462 -17041.559936 -18803.648829     25.504888
PR02 -11523.905114  -2951.463185 -22506.171279    -23.061094
PR03 -18538.055499  12132.654028 -12539.600257     74.903660
PR04 -15244.406590  20028.790677   4139.893637    180.921908
PR05  -3671.888195  17086.584181  18587.901505    109.970641
PR07  18684.392741 -12681.603079  11955.476720     52.560941
PR08  15105.590797 -20134.694383  -4160.652807    -70.082472
PR09  13632.960480  15588.392965 -14933.248884    111.322877
PR11   3115.232114 -17324.482307 -18448.689459    -25.026156
PR12  -7518.968143 -24317.572974  -1792.179431     25.960892
PR13 -13088.625706 -17158.591767  13582.429144    -33.327334
PR14 -11163.383906   1718.939695  22876.417636     24.473434
PR15  -2714.817300  18196.737900  17683.663551     90.203762
PR16   7543.815809  24286.594850   2191.022551     12.827980
PR17 -23407.946658    -91.892779 -10166.225221    615.771396
PR18 -11246.137951   7502.020752 -21603.880632     73.439913
PR19   4863.379615  11383.133754 -22305.094756   -226.786003
PR20  22342.315542   9255.670556  -8184.115044    -90.031936
PR21  22625.875509   -601.811347  11744.429265   -383.331870
PR22  10795.500403  -7838.296253  21770.536792     76.607753
PR24 -22859.497169  -8465.315064   7539.824221    156.968011
PR25  23471.787749   1165.869414   9906.554112     58.864454
EOF
